{"type": "FeatureCollection", "features": [ {"type": "Feature", "properties": {"norad_id": 37295, "name": "COSMOS 2251 DEB", "group": "cosmos-2251-debris", "lat": 13.115198509399233, "lon": -101.50577492621622, "alt_km": 659.2705573921921, "timestamp": "2025-12-26T17:24:55.117111+00:00", "meta": {"OBJECT_NAME": "COSMOS 2251 DEB", "OBJECT_ID": "1993-036BJK", "EPOCH": "2025-12-25T16:46:30.932832", "MEAN_MOTION": 14.65312772, "ECCENTRICITY": 0.00441488, "INCLINATION": 74.006, "RA_OF_ASC_NODE": 256.6411, "ARG_OF_PERICENTER": 71.87, "MEAN_ANOMALY": 288.7269, "EPHEMERIS_TYPE": 0, "CLASSIFICATION_TYPE": "U", "NORAD_CAT_ID": 37295, "ELEMENT_SET_NO": 999, "REV_AT_EPOCH": 82494, "BSTAR": 0.00055089823, "MEAN_MOTION_DOT": 2.985e-05, "MEAN_MOTION_DDOT": 0}, "tle": {"line1": "1 37295U 93036BJK 25359.69896913  .00002985  00000+0  55090-3 0  9997", "line2": "2 37295  74.0060 256.6411 0044148  71.8700 288.7269 14.65312772824941"}}, "geometry": {"type": "Point", "coordinates": [-101.50577492621622, 13.115198509399233]}}, {"type": "Feature", "properties": {"norad_id": 37305, "name": "COSMOS 2251 DEB", "group": "cosmos-2251-debris", "lat": 46.364853139702774, "lon": 66.90586355126868, "alt_km": 767.5187974603296, "timestamp": "2025-12-26T17:24:55.117121+00:00", "meta": {"OBJECT_NAME": "COSMOS 2251 DEB", "OBJECT_ID": "1993-036BJV", "EPOCH": "2025-12-23T00:11:55.974336", "MEAN_MOTION": 14.36169187, "ECCENTRICITY": 0.00495961, "INCLINATION": 73.8701, "RA_OF_ASC_NODE": 271.4675, "ARG_OF_PERICENTER": 230.2466, "MEAN_ANOMALY": 129.4312, "EPHEMERIS_TYPE": 0, "CLASSIFICATION_TYPE": "U", "NORAD_CAT_ID": 37305, "ELEMENT_SET_NO": 999, "REV_AT_EPOCH": 67014, "BSTAR": 0.00056579218, "MEAN_MOTION_DOT": 1.645e-05, "MEAN_MOTION_DDOT": 0}, "tle": {"line1": "1 37305U 93036BJV 25357.00828674  .00001645  00000+0  56579-3 0  9996", "line2": "2 37305  73.8701 271.4675 0049596 230.2466 129.4312 14.36169187670140"}}, "geometry": {"type": "Point", "coordinates": [66.90586355126868, 46.364853139702774]}}, {"type": "Feature", "properties": {"norad_id": 37312, "name": "COSMOS 2251 DEB", "group": "cosmos-2251-debris", "lat": -41.70379662834331, "lon": 163.28834519718126, "alt_km": 733.8124109141263, "timestamp": "2025-12-26T17:24:55.117131+00:00", "meta": {"OBJECT_NAME": "COSMOS 2251 DEB", "OBJECT_ID": "1993-036BKC", "EPOCH": "2025-12-26T04:20:06.486432", "MEAN_MOTION": 14.46165995, "ECCENTRICITY": 0.00184518, "INCLINATION": 74.0294, "RA_OF_ASC_NODE": 179.0901, "ARG_OF_PERICENTER": 281.316, "MEAN_ANOMALY": 78.5925, "EPHEMERIS_TYPE": 0, "CLASSIFICATION_TYPE": "U", "NORAD_CAT_ID": 37312, "ELEMENT_SET_NO": 999, "REV_AT_EPOCH": 86358, "BSTAR": 0.00042518339, "MEAN_MOTION_DOT": 1.496e-05, "MEAN_MOTION_DDOT": 0}, "tle": {"line1": "1 37312U 93036BKC 25360.18063063  .00001496  00000+0  42518-3 0  9992", "line2": "2 37312  74.0294 179.0901 0018451 281.3160  78.5925 14.46165995863587"}}, "geometry": {"type": "Point", "coordinates": [163.28834519718126, -41.70379662834331]}}, {"type": "Feature", "properties": {"norad_id": 37316, "name": "COSMOS 2251 DEB", "group": "cosmos-2251-debris", "lat": 71.74912959934377, "lon": 53.18963048053709, "alt_km": 556.0868731300852, "timestamp": "2025-12-26T17:24:55.117140+00:00", "meta": {"OBJECT_NAME": "COSMOS 2251 DEB", "OBJECT_ID": "1993-036BKG", "EPOCH": "2025-12-26T05:48:51.736608", "MEAN_MOTION": 14.950721, "ECCENTRICITY": 0.00296796, "INCLINATION": 74.0195, "RA_OF_ASC_NODE": 353.8208, "ARG_OF_PERICENTER": 57.0873, "MEAN_ANOMALY": 303.3159, "EPHEMERIS_TYPE": 0, "CLASSIFICATION_TYPE": "U", "NORAD_CAT_ID": 37316, "ELEMENT_SET_NO": 999, "REV_AT_EPOCH": 86345, "BSTAR": 0.0023315878, "MEAN_MOTION_DOT": 0.00025828, "MEAN_MOTION_DDOT": 0}, "tle": {"line1": "1 37316U 93036BKG 25360.24226547  .00025828  00000+0  23316-2 0  9990", "line2": "2 37316  74.0195 353.8208 0029679  57.0873 303.3159 14.95072100863459"}}, "geometry": {"type": "Point", "coordinates": [53.18963048053709, 71.74912959934377]}}, {"type": "Feature", "properties": {"norad_id": 37320, "name": "COSMOS 2251 DEB", "group": "cosmos-2251-debris", "lat": 43.370109340566486, "lon": -4.997891375180162, "alt_km": 654.0043535685045, "timestamp": "2025-12-26T17:24:55.117150+00:00", "meta": {"OBJECT_NAME": "COSMOS 2251 DEB", "OBJECT_ID": "1993-036BKL", "EPOCH": "2025-12-22T20:16:00.405696", "MEAN_MOTION": 14.78886663, "ECCENTRICITY": 0.0046926, "INCLINATION": 74.0442, "RA_OF_ASC_NODE": 198.3073, "ARG_OF_PERICENTER": 283.335, "MEAN_ANOMALY": 76.2596, "EPHEMERIS_TYPE": 0, "CLASSIFICATION_TYPE": "U", "NORAD_CAT_ID": 37320, "ELEMENT_SET_NO": 999, "REV_AT_EPOCH": 66296, "BSTAR": 0.000787018, "MEAN_MOTION_DOT": 5.877e-05, "MEAN_MOTION_DDOT": 0}, "tle": {"line1": "1 37320U 93036BKL 25356.84444914  .00005877  00000+0  78702-3 0  9998", "line2": "2 37320  74.0442 198.3073 0046926 283.3350  76.2596 14.78886663662961"}}, "geometry": {"type": "Point", "coordinates": [-4.997891375180162, 43.370109340566486]}}, {"type": "Feature", "properties": {"norad_id": 37326, "name": "COSMOS 2251 DEB", "group": "cosmos-2251-debris", "lat": -13.266407029004936, "lon": 131.79628986552373, "alt_km": 711.5729282870207, "timestamp": "2025-12-26T17:24:55.117160+00:00", "meta": {"OBJECT_NAME": "COSMOS 2251 DEB", "OBJECT_ID": "1993-036BKS", "EPOCH": "2025-12-18T14:41:59.918784", "MEAN_MOTION": 14.6160351, "ECCENTRICITY": 0.00547059, "INCLINATION": 74.0257, "RA_OF_ASC_NODE": 323.4491, "ARG_OF_PERICENTER": 90.7075, "MEAN_ANOMALY": 270.0361, "EPHEMERIS_TYPE": 0, "CLASSIFICATION_TYPE": "U", "NORAD_CAT_ID": 37326, "ELEMENT_SET_NO": 999, "REV_AT_EPOCH": 85569, "BSTAR": 0.00040097011, "MEAN_MOTION_DOT": 2.005e-05, "MEAN_MOTION_DDOT": 0}, "tle": {"line1": "1 37326U 93036BKS 25352.61249906  .00002005  00000+0  40097-3 0  9995", "line2": "2 37326  74.0257 323.4491 0054705  90.7075 270.0361 14.61603510855692"}}, "geometry": {"type": "Point", "coordinates": [131.79628986552373, -13.266407029004936]}}, {"type": "Feature", "properties": {"norad_id": 37330, "name": "COSMOS 2251 DEB", "group": "cosmos-2251-debris", "lat": 73.62850456693324, "lon": -14.299307698656992, "alt_km": 651.1782431019947, "timestamp": "2025-12-26T17:24:55.117170+00:00", "meta": {"OBJECT_NAME": "COSMOS 2251 DEB", "OBJECT_ID": "1993-036BKW", "EPOCH": "2025-12-24T00:52:02.666208", "MEAN_MOTION": 14.59569552, "ECCENTRICITY": 0.00567424, "INCLINATION": 74.0177, "RA_OF_ASC_NODE": 273.5222, "ARG_OF_PERICENTER": 118.7622, "MEAN_ANOMALY": 241.926, "EPHEMERIS_TYPE": 0, "CLASSIFICATION_TYPE": "U", "NORAD_CAT_ID": 37330, "ELEMENT_SET_NO": 999, "REV_AT_EPOCH": 86533, "BSTAR": 0.00027721204, "MEAN_MOTION_DOT": 1.317e-05, "MEAN_MOTION_DDOT": 0}, "tle": {"line1": "1 37330U 93036BKW 25358.03614197  .00001317  00000+0  27721-3 0  9994", "line2": "2 37330  74.0177 273.5222 0056742 118.7622 241.9260 14.59569552865338"}}, "geometry": {"type": "Point", "coordinates": [-14.299307698656992, 73.62850456693324]}}, {"type": "Feature", "properties": {"norad_id": 37331, "name": "COSMOS 2251 DEB", "group": "cosmos-2251-debris", "lat": 52.68986135546618, "lon": 64.29800626278427, "alt_km": 730.0983827534301, "timestamp": "2025-12-26T17:24:55.117179+00:00", "meta": {"OBJECT_NAME": "COSMOS 2251 DEB", "OBJECT_ID": "1993-036BKX", "EPOCH": "2025-12-24T11:37:12.375264", "MEAN_MOTION": 14.35050755, "ECCENTRICITY": 0.00553191, "INCLINATION": 74.0736, "RA_OF_ASC_NODE": 46.3907, "ARG_OF_PERICENTER": 56.9806, "MEAN_ANOMALY": 303.6644, "EPHEMERIS_TYPE": 0, "CLASSIFICATION_TYPE": "U", "NORAD_CAT_ID": 37331, "ELEMENT_SET_NO": 999, "REV_AT_EPOCH": 84928, "BSTAR": 0.00040764009, "MEAN_MOTION_DOT": 1.157e-05, "MEAN_MOTION_DDOT": 0}, "tle": {"line1": "1 37331U 93036BKX 25358.48417101  .00001157  00000+0  40764-3 0  9994", "line2": "2 37331  74.0736  46.3907 0055319  56.9806 303.6644 14.35050755849284"}}, "geometry": {"type": "Point", "coordinates": [64.29800626278427, 52.68986135546618]}}, {"type": "Feature", "properties": {"norad_id": 37336, "name": "COSMOS 2251 DEB", "group": "cosmos-2251-debris", "lat": -70.46013934167831, "lon": -108.04650430155937, "alt_km": 792.3765779599071, "timestamp": "2025-12-26T17:24:55.117189+00:00", "meta": {"OBJECT_NAME": "COSMOS 2251 DEB", "OBJECT_ID": "1993-036BLC", "EPOCH": "2025-12-17T07:33:13.175712", "MEAN_MOTION": 14.32760586, "ECCENTRICITY": 0.00290162, "INCLINATION": 74.0414, "RA_OF_ASC_NODE": 322.8603, "ARG_OF_PERICENTER": 39.1846, "MEAN_ANOMALY": 321.1399, "EPHEMERIS_TYPE": 0, "CLASSIFICATION_TYPE": "U", "NORAD_CAT_ID": 37336, "ELEMENT_SET_NO": 999, "REV_AT_EPOCH": 65185, "BSTAR": 6.9199726e-05, "MEAN_MOTION_DOT": 1.63e-06, "MEAN_MOTION_DDOT": 0}, "tle": {"line1": "1 37336U 93036BLC 25351.31473583  .00000163  00000+0  69200-4 0  9993", "line2": "2 37336  74.0414 322.8603 0029016  39.1846 321.1399 14.32760586651852"}}, "geometry": {"type": "Point", "coordinates": [-108.04650430155937, -70.46013934167831]}}, {"type": "Feature", "properties": {"norad_id": 37340, "name": "COSMOS 2251 DEB", "group": "cosmos-2251-debris", "lat": -8.025844289829257, "lon": -110.88927300363078, "alt_km": 759.2392755315568, "timestamp": "2025-12-26T17:24:55.117199+00:00", "meta": {"OBJECT_NAME": "COSMOS 2251 DEB", "OBJECT_ID": "1993-036BLG", "EPOCH": "2025-12-26T00:44:42.186048", "MEAN_MOTION": 14.36937733, "ECCENTRICITY": 0.00183659, "INCLINATION": 74.025, "RA_OF_ASC_NODE": 252.703, "ARG_OF_PERICENTER": 344.8671, "MEAN_ANOMALY": 15.193, "EPHEMERIS_TYPE": 0, "CLASSIFICATION_TYPE": "U", "NORAD_CAT_ID": 37340, "ELEMENT_SET_NO": 999, "REV_AT_EPOCH": 84258, "BSTAR": 0.00016722421, "MEAN_MOTION_DOT": 4.7e-06, "MEAN_MOTION_DDOT": 0}, "tle": {"line1": "1 37340U 93036BLG 25360.03104382  .00000470  00000+0  16722-3 0  9996", "line2": "2 37340  74.0250 252.7030 0018365 344.8671  15.1930 14.36937733842584"}}, "geometry": {"type": "Point", "coordinates": [-110.88927300363078, -8.025844289829257]}}]}